start=new Date('2023-05-25T00:00:00.000Z').valueOf();
sats=[{"SITE":"AFETR","COUNTRY_CODE":"US","TLE_LINE1":"1 54103U 22136BE  23144.19765342  .00001552  00000-0  11559-3 0  9995","EPOCH":"2023-05-24T04:44:37.255488","BSTAR":"0.00011559000000","MEAN_ELEMENT_THEORY":"SGP4","PERIOD":"95.438","LAUNCH_DATE":"2022-10-20","INCLINATION":"53.2157","MEAN_MOTION_DOT":"0.00001552","REV_AT_EPOCH":"3320","CENTER_NAME":"EARTH","MEAN_MOTION_DDOT":"0.0000000000000","OBJECT_ID":"2022-136BE","RCS_SIZE":"LARGE","MEAN_MOTION":"15.08833087","REF_FRAME":"TEME","OBJECT_NAME":"STARLINK-5200","FILE":"3916549","NORAD_CAT_ID":"54103","ARG_OF_PERICENTER":"82.0555","RA_OF_ASC_NODE":"215.3906","EPHEMERIS_TYPE":"0","MEAN_ANOMALY":"278.0553","OBJECT_TYPE":"PAYLOAD","DECAY_DATE":null,"TIME_SYSTEM":"UTC","SEMIMAJOR_AXIS":"6917.902","APOAPSIS":"540.474","CLASSIFICATION_TYPE":"U","PERIAPSIS":"539.059","ELEMENT_SET_NO":"999","ECCENTRICITY":"0.00010230","GP_ID":"232451579","TLE_LINE2":"2 54103  53.2157 215.3906 0001023  82.0555 278.0553 15.08833087 33206"},{"ELEMENT_SET_NO":"999","PERIAPSIS":"538.896","CLASSIFICATION_TYPE":"U","TLE_LINE2":"2 54104  53.2185 199.3681 0001241 106.4106 253.7023 15.08836946 33911","GP_ID":"232422193","ECCENTRICITY":"0.00012410","APOAPSIS":"540.613","SEMIMAJOR_AXIS":"6917.890","OBJECT_TYPE":"PAYLOAD","MEAN_ANOMALY":"253.7023","TIME_SYSTEM":"UTC","DECAY_DATE":null,"EPHEMERIS_TYPE":"0","RA_OF_ASC_NODE":"199.3681","NORAD_CAT_ID":"54104","ARG_OF_PERICENTER":"106.4106","FILE":"3916328","REF_FRAME":"TEME","OBJECT_NAME":"STARLINK-5203","MEAN_MOTION":"15.08836946","RCS_SIZE":"LARGE","MEAN_MOTION_DDOT":"0.0000000000000","OBJECT_ID":"2022-136BF","CENTER_NAME":"EARTH","BSTAR":"0.00011501000000","MEAN_ELEMENT_THEORY":"SGP4","EPOCH":"2023-05-24T08:58:16.699296","TLE_LINE1":"1 54104U 22136BF  23144.37380439  .00001543  00000-0  11501-3 0  9993","REV_AT_EPOCH":"3391","LAUNCH_DATE":"2022-10-20","INCLINATION":"53.2185","MEAN_MOTION_DOT":"0.00001543","PERIOD":"95.438","SITE":"AFETR","COUNTRY_CODE":"US"},{"REV_AT_EPOCH":"3172","LAUNCH_DATE":"2022-10-28","MEAN_MOTION_DOT":"0.00000856","INCLINATION":"53.2157","PERIOD":"95.438","MEAN_ELEMENT_THEORY":"SGP4","BSTAR":"0.00007184900000","EPOCH":"2023-05-24T15:21:47.651040","TLE_LINE1":"1 54157U 22141A   23144.64013485  .00000856  00000-0  71849-4 0  9999","COUNTRY_CODE":"US","SITE":"AFWTR","ARG_OF_PERICENTER":"56.3185","NORAD_CAT_ID":"54157","FILE":"3916549","OBJECT_NAME":"STARLINK-5290","REF_FRAME":"TEME","MEAN_MOTION":"15.08837400","RCS_SIZE":"LARGE","OBJECT_ID":"2022-141A","MEAN_MOTION_DDOT":"0.0000000000000","CENTER_NAME":"EARTH","TIME_SYSTEM":"UTC","DECAY_DATE":null,"OBJECT_TYPE":"PAYLOAD","MEAN_ANOMALY":"303.7877","EPHEMERIS_TYPE":"0","RA_OF_ASC_NODE":"273.3556","GP_ID":"232453079","TLE_LINE2":"2 54157  53.2157 273.3556 0000737  56.3185 303.7877 15.08837400 31727","ECCENTRICITY":"0.00007370","ELEMENT_SET_NO":"999","PERIAPSIS":"539.243","CLASSIFICATION_TYPE":"U","APOAPSIS":"540.263","SEMIMAJOR_AXIS":"6917.888"},{"MEAN_ANOMALY":"281.1929","OBJECT_TYPE":"PAYLOAD","DECAY_DATE":null,"TIME_SYSTEM":"UTC","EPHEMERIS_TYPE":"0","RA_OF_ASC_NODE":"273.4019","ELEMENT_SET_NO":"999","CLASSIFICATION_TYPE":"U","PERIAPSIS":"539.030","ECCENTRICITY":"0.00010040","GP_ID":"232453330","TLE_LINE2":"2 54158  53.2161 273.4019 0001004  78.9176 281.1929 15.08846714 31721","SEMIMAJOR_AXIS":"6917.860","APOAPSIS":"540.419","BSTAR":"0.00034874000000","MEAN_ELEMENT_THEORY":"SGP4","TLE_LINE1":"1 54158U 22141B   23144.64750079  .00005268  00000-0  34874-3 0  9995","EPOCH":"2023-05-24T15:32:24.068256","REV_AT_EPOCH":"3172","PERIOD":"95.437","INCLINATION":"53.2161","LAUNCH_DATE":"2022-10-28","MEAN_MOTION_DOT":"0.00005268","SITE":"AFWTR","COUNTRY_CODE":"US","FILE":"3916549","NORAD_CAT_ID":"54158","ARG_OF_PERICENTER":"78.9176","MEAN_MOTION":"15.08846714","OBJECT_NAME":"STARLINK-5297","REF_FRAME":"TEME","RCS_SIZE":"LARGE","CENTER_NAME":"EARTH","MEAN_MOTION_DDOT":"0.0000000000000","OBJECT_ID":"2022-141B"},{"PERIOD":"95.438","INCLINATION":"53.2173","LAUNCH_DATE":"2022-10-28","MEAN_MOTION_DOT":"0.00000945","REV_AT_EPOCH":"3171","TLE_LINE1":"1 54159U 22141C   23144.57758798  .00000945  00000-0  77475-4 0  9996","EPOCH":"2023-05-24T13:51:43.601472","BSTAR":"0.00007747500000","MEAN_ELEMENT_THEORY":"SGP4","COUNTRY_CODE":"US","SITE":"AFWTR","MEAN_MOTION":"15.08830529","REF_FRAME":"TEME","OBJECT_NAME":"STARLINK-5294","FILE":"3916549","ARG_OF_PERICENTER":"131.5761","NORAD_CAT_ID":"54159","CENTER_NAME":"EARTH","OBJECT_ID":"2022-141C","MEAN_MOTION_DDOT":"0.0000000000000","RCS_SIZE":"LARGE","TIME_SYSTEM":"UTC","DECAY_DATE":null,"OBJECT_TYPE":"PAYLOAD","MEAN_ANOMALY":"228.5376","RA_OF_ASC_NODE":"273.6853","EPHEMERIS_TYPE":"0","ECCENTRICITY":"0.00016900","GP_ID":"232451585","TLE_LINE2":"2 54159  53.2173 273.6853 0001690 131.5761 228.5376 15.08830529 31717","CLASSIFICATION_TYPE":"U","PERIAPSIS":"538.605","ELEMENT_SET_NO":"999","SEMIMAJOR_AXIS":"6917.909","APOAPSIS":"540.943"},{"SEMIMAJOR_AXIS":"6917.887","APOAPSIS":"540.472","ELEMENT_SET_NO":"999","CLASSIFICATION_TYPE":"U","PERIAPSIS":"539.032","ECCENTRICITY":"0.00010410","GP_ID":"232451833","TLE_LINE2":"2 54160  53.2183 228.6397 0001041  76.8205 283.2904 15.08837737 32340","EPHEMERIS_TYPE":"0","RA_OF_ASC_NODE":"228.6397","MEAN_ANOMALY":"283.2904","OBJECT_TYPE":"PAYLOAD","TIME_SYSTEM":"UTC","DECAY_DATE":null,"RCS_SIZE":"LARGE","CENTER_NAME":"EARTH","OBJECT_ID":"2022-141D","MEAN_MOTION_DDOT":"0.0000000000000","FILE":"3916549","NORAD_CAT_ID":"54160","ARG_OF_PERICENTER":"76.8205","MEAN_MOTION":"15.08837737","REF_FRAME":"TEME","OBJECT_NAME":"STARLINK-5233","SITE":"AFWTR","COUNTRY_CODE":"US","BSTAR":"0.00002698900000","MEAN_ELEMENT_THEORY":"SGP4","TLE_LINE1":"1 54160U 22141D   23144.55778137  .00000142  00000-0  26989-4 0  9998","EPOCH":"2023-05-24T13:23:12.310368","REV_AT_EPOCH":"3234","PERIOD":"95.438","INCLINATION":"53.2183","LAUNCH_DATE":"2022-10-28","MEAN_MOTION_DOT":"0.00000142"},{"BSTAR":"-0.00000838890000","MEAN_ELEMENT_THEORY":"SGP4","EPOCH":"2023-05-24T15:28:28.948800","TLE_LINE1":"1 54161U 22141E   23144.64477950 -.00000422  00000-0 -83889-5 0  9994","REV_AT_EPOCH":"3172","LAUNCH_DATE":"2022-10-28","INCLINATION":"53.2166","MEAN_MOTION_DOT":"-0.00000422","PERIOD":"95.437","SITE":"AFWTR","COUNTRY_CODE":"US","NORAD_CAT_ID":"54161","ARG_OF_PERICENTER":"73.1346","FILE":"3916549","OBJECT_NAME":"STARLINK-5269","REF_FRAME":"TEME","MEAN_MOTION":"15.08843851","RCS_SIZE":"LARGE","MEAN_MOTION_DDOT":"0.0000000000000","OBJECT_ID":"2022-141E","CENTER_NAME":"EARTH","MEAN_ANOMALY":"286.9829","OBJECT_TYPE":"PAYLOAD","TIME_SYSTEM":"UTC","DECAY_DATE":null,"EPHEMERIS_TYPE":"0","RA_OF_ASC_NODE":"273.3869","ELEMENT_SET_NO":"999","PERIAPSIS":"538.578","CLASSIFICATION_TYPE":"U","TLE_LINE2":"2 54161  53.2166 273.3869 0001671  73.1346 286.9829 15.08843851 31729","GP_ID":"232452579","ECCENTRICITY":"0.00016710","APOAPSIS":"540.890","SEMIMAJOR_AXIS":"6917.869"},{"MEAN_ELEMENT_THEORY":"SGP4","BSTAR":"0.00014220000000","TLE_LINE1":"1 54162U 22141F   23144.63644852  .00001976  00000-0  14220-3 0  9995","EPOCH":"2023-05-24T15:16:29.152128","REV_AT_EPOCH":"3172","PERIOD":"95.437","INCLINATION":"53.2164","LAUNCH_DATE":"2022-10-28","MEAN_MOTION_DOT":"0.00001976","SITE":"AFWTR","COUNTRY_CODE":"US","FILE":"3916549","NORAD_CAT_ID":"54162","ARG_OF_PERICENTER":"91.4781","MEAN_MOTION":"15.08844612","OBJECT_NAME":"STARLINK-5273","REF_FRAME":"TEME","RCS_SIZE":"LARGE","CENTER_NAME":"EARTH","OBJECT_ID":"2022-141F","MEAN_MOTION_DDOT":"0.0000000000000","OBJECT_TYPE":"PAYLOAD","MEAN_ANOMALY":"268.6327","DECAY_DATE":null,"TIME_SYSTEM":"UTC","EPHEMERIS_TYPE":"0","RA_OF_ASC_NODE":"273.3316","ELEMENT_SET_NO":"999","CLASSIFICATION_TYPE":"U","PERIAPSIS":"539.031","ECCENTRICITY":"0.00010130","TLE_LINE2":"2 54162  53.2164 273.3316 0001013  91.4781 268.6327 15.08844612 31727","GP_ID":"232452830","SEMIMAJOR_AXIS":"6917.866","APOAPSIS":"540.432"},{"RA_OF_ASC_NODE":"263.4337","EPHEMERIS_TYPE":"0","MEAN_ANOMALY":"257.4390","OBJECT_TYPE":"PAYLOAD","TIME_SYSTEM":"UTC","DECAY_DATE":null,"APOAPSIS":"540.350","SEMIMAJOR_AXIS":"6917.869","PERIAPSIS":"539.118","CLASSIFICATION_TYPE":"U","ELEMENT_SET_NO":"999","GP_ID":"232452086","TLE_LINE2":"2 54163  53.2169 263.4337 0000890 102.6702 257.4390 15.08843743 31861","ECCENTRICITY":"0.00008900","SITE":"AFWTR","COUNTRY_CODE":"US","EPOCH":"2023-05-24T15:33:43.958880","TLE_LINE1":"1 54163U 22141G   23144.64842545  .00001246  00000-0  96315-4 0  9992","MEAN_ELEMENT_THEORY":"SGP4","BSTAR":"0.00009631500000","INCLINATION":"53.2169","LAUNCH_DATE":"2022-10-28","MEAN_MOTION_DOT":"0.00001246","PERIOD":"95.437","REV_AT_EPOCH":"3186","MEAN_MOTION_DDOT":"0.0000000000000","OBJECT_ID":"2022-141G","CENTER_NAME":"EARTH","RCS_SIZE":"LARGE","REF_FRAME":"TEME","OBJECT_NAME":"STARLINK-5161","MEAN_MOTION":"15.08843743","ARG_OF_PERICENTER":"102.6702","NORAD_CAT_ID":"54163","FILE":"3916549"},{"APOAPSIS":"540.421","SEMIMAJOR_AXIS":"6917.859","ELEMENT_SET_NO":"999","PERIAPSIS":"539.027","CLASSIFICATION_TYPE":"U","GP_ID":"232452334","TLE_LINE2":"2 54164  53.2176 263.4577 0001008  98.5738 261.5368 15.08847005 31866","ECCENTRICITY":"0.00010080","EPHEMERIS_TYPE":"0","RA_OF_ASC_NODE":"263.4577","MEAN_ANOMALY":"261.5368","OBJECT_TYPE":"PAYLOAD","TIME_SYSTEM":"UTC","DECAY_DATE":null,"RCS_SIZE":"LARGE","MEAN_MOTION_DDOT":"0.0000000000000","OBJECT_ID":"2022-141H","CENTER_NAME":"EARTH","ARG_OF_PERICENTER":"98.5738","NORAD_CAT_ID":"54164","FILE":"3916549","OBJECT_NAME":"STARLINK-5278","REF_FRAME":"TEME","MEAN_MOTION":"15.08847005","SITE":"AFWTR","COUNTRY_CODE":"US","BSTAR":"0.00006972500000","MEAN_ELEMENT_THEORY":"SGP4","EPOCH":"2023-05-24T15:39:02.084544","TLE_LINE1":"1 54164U 22141H   23144.65210746  .00000822  00000-0  69725-4 0  9990","REV_AT_EPOCH":"3186","MEAN_MOTION_DOT":"0.00000822","LAUNCH_DATE":"2022-10-28","INCLINATION":"53.2176","PERIOD":"95.437"}];
